SatCatId,ObjectName,LaunchYear,OrbitalPeriod,LaunchMass,StatusCode,Inclination,Status,UcsData,OrbitClassEstimated,LaunchSiteCountry,Owner,UseType,Purpose,LaunchVehicleClass,TLE1,TLE2,MeanMotion,Eccentricity,OrbitClass
45094,STARLINK-1146,2020,95.59,227.0,+,53.05,Active,1,LEO,USA,USA,Commercial,Communications,Falcon,1 45094U 20006BC  23266.46457342  .00003736  00000+0  26962-3 0  9990,2 45094  53.0551 318.9034 0001474  90.7861 269.3297 15.06397027201649,15.06397027,0.0001474,LEO
45095,STARLINK-1147,2020,95.59,227.0,+,53.05,Active,1,LEO,USA,USA,Commercial,Communications,Falcon,1 45095U 20006BD  23266.46825435  .00027315  00000+0  18447-2 0  9990,2 45095  53.0538 318.8845 0001360  96.3762 263.7382 15.06417026201645,15.06417026,0.000136,LEO
45096,STARLINK-1152,2020,95.59,227.0,+,53.05,Active,1,LEO,USA,USA,Commercial,Communications,Falcon,1 45096U 20006BE  23266.46183175  .00024180  00000+0  16367-2 0  9995,2 45096  53.0537 318.9244 0001358  97.2547 262.8596 15.06398920201634,15.0639892,0.0001358,LEO
45098,STARLINK-1184,2020,95.59,227.0,+,53.05,Active,1,LEO,USA,USA,Commercial,Communications,Falcon,1 45098U 20006BG  23266.44340473  .00024157  00000+0  16350-2 0  9997,2 45098  53.0539 319.0067 0001466  89.1885 270.9272 15.06401924201638,15.06401924,0.0001466,LEO
45099,STARLINK-1186,2020,95.59,227.0,+,53.06,Active,1,LEO,USA,USA,Commercial,Communications,Falcon,1 45099U 20006BH  23266.54292812  .00006026  00000+0  42310-3 0  9993,2 45099  53.0551 318.5572 0001839  96.7629 263.3570 15.06398030201654,15.0639803,0.0001839,LEO
45100,STARLINK-1193,2020,95.59,227.0,+,53.05,Active,1,LEO,USA,USA,Commercial,Communications,Falcon,1 45100U 20006BJ  23266.37337766  .00003078  00000+0  22549-3 0  9991,2 45100  53.0541 319.3255 0001542  54.1598 305.9534 15.06387701201620,15.06387701,0.0001542,LEO
45101,STARLINK-1194,2020,95.59,227.0,+,53.05,Active,1,LEO,USA,USA,Commercial,Communications,Falcon,1 45101U 20006BK  23266.43508076 -.00005899  00000+0 -37740-3 0  9997,2 45101  53.0541 319.0328 0001377  81.8635 278.2510 15.06402266201635,15.06402266,0.0001377,LEO
45102,STARLINK-1195,2020,95.59,227.0,+,53.05,Active,1,LEO,USA,USA,Commercial,Communications,Falcon,1 45102U 20006BL  23266.45815397  .00003524  00000+0  25535-3 0  9997,2 45102  53.0543 318.9403 0001401  91.1711 268.9439 15.06402593201636,15.06402593,0.0001401,LEO
45103,STARLINK-1196,2020,94.55,227.0,P,53.07,Active,1,LEO,USA,USA,Commercial,Communications,Falcon,1 45103U 20006BM  23266.38454482  .00000840  00000+0  49208-4 0  9996,2 45103  53.0689 304.2260 0003264  48.4375 311.6901 15.23053673201840,15.23053673,0.0003264,LEO
45131,ONEWEB-0013,2020,109.98,148.0,+,87.91,Active,1,LEO,Kazakhstan,UK,Commercial,Communications,Soyuz,1 45131U 20008A   23266.51191190  .00000189  00000+0  51331-3 0  9993,2 45131  87.9098 253.0262 0002409 110.3720 249.7666 13.09381025176260,13.09381025,0.0002409,LEO
45132,ONEWEB-0017,2020,109.89,148.0,+,87.88,Active,1,LEO,Kazakhstan,UK,Commercial,Communications,Soyuz,1 45132U 20008B   23266.46583080 -.00000093  00000+0 -30322-3 0  9994,2 45132  87.8845 234.4000 0002083  77.3648 282.7712 13.10363645177284,13.10363645,0.0002083,LEO
45133,ONEWEB-0020,2020,109.89,148.0,+,87.89,Active,1,LEO,Kazakhstan,UK,Commercial,Communications,Soyuz,1 45133U 20008C   23266.66403857  .00000494  00000+0  13786-2 0  9997,2 45133  87.8851 234.3466 0001875  75.7063 284.4273 13.10375621178489,13.10375621,0.0001875,LEO
45134,ONEWEB-0021,2020,109.89,148.0,+,87.89,Active,1,LEO,Kazakhstan,UK,Commercial,Communications,Soyuz,1 45134U 20008D   23266.67865224  .00000581  00000+0  16291-2 0  9990,2 45134  87.8852 234.3469 0002089  80.3864 279.7499 13.10376546178881,13.10376546,0.0002089,LEO
45136,ONEWEB-0023,2020,109.89,148.0,+,87.88,Active,1,LEO,Kazakhstan,UK,Commercial,Communications,Soyuz,1 45136U 20008F   23266.46255912 -.00000033  00000+0 -13048-3 0  9998,2 45136  87.8849 234.3832 0001525  95.4254 264.7047 13.10370153178169,13.10370153,0.0001525,LEO
45137,ONEWEB-0024,2020,109.89,148.0,+,87.88,Active,1,LEO,Kazakhstan,UK,Commercial,Communications,Soyuz,1 45137U 20008G   23266.43331226 -.00000154  00000+0 -47750-3 0  9990,2 45137  87.8763 234.4213 0002120  80.0099 280.1268 13.10377673177573,13.10377673,0.000212,LEO
45138,ONEWEB-0025,2020,109.89,148.0,+,87.89,Active,1,LEO,Kazakhstan,UK,Commercial,Communications,Soyuz,1 45138U 20008H   23266.45119481  .00000672  00000+0  18885-2 0  9999,2 45138  87.8850 234.3937 0002200  91.0796 269.0584 13.10377372177908,13.10377372,0.00022,LEO
45139,ONEWEB-0026,2020,109.83,148.0,+,87.9,Active,1,LEO,Kazakhstan,UK,Commercial,Communications,Soyuz,1 45139U 20008J   23266.42465109 -.00113114  00000+0 -32437+0 0  9992,2 45139  87.8966 219.2508 0002737  64.6457 295.4954 13.11148668180338,13.11148668,0.0002737,LEO
45140,ONEWEB-0028,2020,109.8,148.0,+,87.9,Active,1,LEO,Kazakhstan,UK,Commercial,Communications,Soyuz,1 45140U 20008K   23266.38127718  .00000027  00000+0  40918-4 0  9994,2 45140  87.8955 219.3068 0002365  90.6294 269.5105 13.11417869177849,13.11417869,0.0002365,LEO
45141,ONEWEB-0032,2020,109.89,148.0,+,87.88,Active,1,LEO,Kazakhstan,UK,Commercial,Communications,Soyuz,1 45141U 20008L   23266.46743458 -.00000156  00000+0 -48303-3 0  9999,2 45141  87.8849 234.4324 0002093  82.7114 277.4252 13.10369311178496,13.10369311,0.0002093,LEO
45142,ONEWEB-0033,2020,109.89,148.0,+,87.89,Active,1,LEO,Kazakhstan,UK,Commercial,Communications,Soyuz,1 45142U 20008M   23266.44145613  .00000741  00000+0  20857-2 0  9998,2 45142  87.8853 234.4451 0002000  72.0340 288.1005 13.10379095177544,13.10379095,0.0002,LEO
45143,ONEWEB-0035,2020,109.89,148.0,+,87.88,Active,1,LEO,Kazakhstan,UK,Commercial,Communications,Soyuz,1 45143U 20008N   23266.39758071 -.00000462  00000+0 -13594-2 0  9993,2 45143  87.8847 234.4278 0001993  78.4364 281.6987 13.10369725177266,13.10369725,0.0001993,LEO
45144,ONEWEB-0036,2020,109.89,148.0,+,87.89,Active,1,LEO,Kazakhstan,UK,Commercial,Communications,Soyuz,1 45144U 20008P   23266.46421169 -.00000017  00000+0 -86300-4 0  9990,2 45144  87.8850 234.3745 0001857  86.1043 274.0296 13.10375917177706,13.10375917,0.0001857,LEO
45145,ONEWEB-0038,2020,109.81,148.0,+,87.9,Active,1,LEO,Kazakhstan,UK,Commercial,Communications,Soyuz,1 45145U 20008Q   23266.42264599  .00001395  00000+0  38992-2 0  9999,2 45145  87.8960 219.2506 0002683  88.0165 272.1270 13.11409655179554,13.11409655,0.0002683,LEO
45146,ONEWEB-0039,2020,109.89,148.0,+,87.88,Active,1,LEO,Kazakhstan,UK,Commercial,Communications,Soyuz,1 45146U 20008R   23266.67377337  .00000665  00000+0  18696-2 0  9990,2 45146  87.8847 234.3539 0001952  98.4065 261.7283 13.10378837178301,13.10378837,0.0001952,LEO
45147,ONEWEB-0040,2020,109.89,148.0,+,87.89,Active,1,LEO,Kazakhstan,UK,Commercial,Communications,Soyuz,1 45147U 20008S   23266.43820635  .00002367  00000+0  67441-2 0  9992,2 45147  87.8856 234.3848 0001542  87.8482 272.2822 13.10371237177194,13.10371237,0.0001542,LEO
45149,ONEWEB-0043,2020,109.89,148.0,+,87.89,Active,1,LEO,Kazakhstan,UK,Commercial,Communications,Soyuz,1 45149U 20008U   23266.43984275  .00000685  00000+0  19271-2 0  9994,2 45149  87.8850 234.4058 0002041 100.4499 259.6859 13.10374115177512,13.10374115,0.0002041,LEO
45150,ONEWEB-0044,2020,109.89,148.0,+,87.88,Active,1,LEO,Kazakhstan,UK,Commercial,Communications,Soyuz,1 45150U 20008V   23266.46908185  .00000326  00000+0  89727-3 0  9991,2 45150  87.8842 234.3987 0002095  93.5121 266.6246 13.10372131177815,13.10372131,0.0002095,LEO
45151,ONEWEB-0045,2020,109.8,148.0,+,87.89,Active,1,LEO,Kazakhstan,UK,Commercial,Communications,Soyuz,1 45151U 20008W   23266.42899199 -.00000336  00000+0 -98428-3 0  9993,2 45151  87.8949 219.2454 0002039  75.6057 284.5297 13.11416463179637,13.11416463,0.0002039,LEO
45152,ONEWEB-0047,2020,109.89,148.0,+,87.88,Active,1,LEO,Kazakhstan,UK,Commercial,Communications,Soyuz,1 45152U 20008X   23266.46095001 -.00000949  00000+0 -27534-2 0  9997,2 45152  87.8842 234.4009 0001991  81.2392 278.8960 13.10381791177530,13.10381791,0.0001991,LEO
45153,ONEWEB-0048,2020,109.89,148.0,+,87.88,Active,1,LEO,Kazakhstan,UK,Commercial,Communications,Soyuz,1 45153U 20008Y   23266.45608528  .00000405  00000+0  11231-2 0  9993,2 45153  87.8846 234.4117 0001885  84.3416 275.7926 13.10375459177147,13.10375459,0.0001885,LEO
45154,ONEWEB-0049,2020,109.89,148.0,+,87.89,Active,1,LEO,Kazakhstan,UK,Commercial,Communications,Soyuz,1 45154U 20008Z   23266.45770856  .00000306  00000+0  84165-3 0  9995,2 45154  87.8850 234.3809 0001768  85.6225 274.5104 13.10375617177367,13.10375617,0.0001768,LEO
45155,ONEWEB-0051,2020,109.8,148.0,+,87.9,Active,1,LEO,Kazakhstan,UK,Commercial,Communications,Soyuz,1 45155U 20008AA  23266.42687920 -.00000170  00000+0 -51528-3 0  9990,2 45155  87.8954 219.2784 0002047  74.7569 285.3785 13.11415993180315,13.11415993,0.0002047,LEO
45156,ONEWEB-0052,2020,109.89,148.0,+,87.89,Active,1,LEO,Kazakhstan,UK,Commercial,Communications,Soyuz,1 45156U 20008AB  23266.45445032  .00000459  00000+0  12772-2 0  9995,2 45156  87.8852 234.3653 0001422 105.3012 254.8272 13.10376737177270,13.10376737,0.0001422,LEO
45157,ONEWEB-0053,2020,109.89,148.0,+,87.89,Active,1,LEO,Kazakhstan,UK,Commercial,Communications,Soyuz,1 45157U 20008AC  23266.66565554  .00000604  00000+0  16943-2 0  9997,2 45157  87.8850 234.3770 0001886  86.4783 273.6560 13.10379142178034,13.10379142,0.0001886,LEO
45158,ONEWEB-0054,2020,109.89,148.0,+,87.88,Active,1,LEO,Kazakhstan,UK,Commercial,Communications,Soyuz,1 45158U 20008AD  23266.47231084 -.00000419  00000+0 -12375-2 0  9996,2 45158  87.8844 234.4023 0001916  82.6125 277.5220 13.10368205178126,13.10368205,0.0001916,LEO
45159,ONEWEB-0056,2020,109.89,148.0,+,87.88,Active,1,LEO,Kazakhstan,UK,Commercial,Communications,Soyuz,1 45159U 20008AE  23266.45282683  .00000505  00000+0  14111-2 0  9990,2 45159  87.8844 234.4011 0001886  85.6797 274.4546 13.10376674177516,13.10376674,0.0001886,LEO
